KUIPER-00008            
1 63724U 25088A   25204.58336806 -.00323773  00000+0 -23448-1 0  9995
2 63724  51.8877  51.5611 0012482  55.8433 121.8817 15.05124078  4391
KUIPER-00009            
1 63725U 25088B   25204.58336806 -.00723615  00000+0 -34957-1 0  9992
2 63725  51.8758  46.0001 0012602  82.6565 332.4935 15.20476776  5776
KUIPER-00010            
1 63726U 25088C   25203.97663440  .00013762  00000+0  39764-3 0  9998
2 63726  51.8644  48.1036 0009844  62.9156 297.2833 15.35892946 13303
KUIPER-00011            
1 63727U 25088D   25204.58800662  .00014188  00000+0  41522-3 0  9994
2 63727  51.8576  45.3894 0011521  71.9072 288.3167 15.35446735 13538
KUIPER-00012            
1 63728U 25088E   25204.26109720  .00014182  00000+0  41388-3 0  9991
2 63728  51.8568  46.9383 0011640  72.1714 288.0540 15.35533984 13432
KUIPER-00013            
1 63729U 25088F   25204.58336806 -.00635223  00000+0 -32261-1 0  9999
2 63729  51.8752  46.5651 0007314  49.9180  87.1181 15.18917672  5626
KUIPER-00014            
1 63730U 25088G   25204.58336806 -.00632023  00000+0 -32940-1 0  9990
2 63730  51.8786  47.4696 0010062  69.2973  17.0543 15.17980235  5700
KUIPER-00015            
1 63731U 25088H   25204.58336806  .00018049  00000+0  16238-2 0  9998
2 63731  51.8888  55.2223 0010882  53.5778 121.3842 14.95641403  5422
